GALAXY 36 (G-36)        
1 54742U 22170B   25334.77302656 -.00000163  00000+0  00000+0 0  9996
2 54742   0.0346 138.0636 0000525 100.0511  21.0878  1.00271264 10789
GALAXY 37 (G-37)        
1 57493U 23112A   25334.69415940  .00000070  00000+0  00000+0 0  9997
2 57493   0.0221  44.6985 0002276 210.4627 297.5650  1.00272002  8556
