{
  "type": "FeatureCollection",
  "features": [
    {
      "type": "Feature",
      "properties": {
        "norad_id": 54742,
        "name": "GALAXY 36 (G-36)",
        "group": "intelsat",
        "lat": NaN,
        "lon": NaN,
        "alt_km": NaN,
        "timestamp": "2025-12-01T03:08:33.656859+00:00",
        "meta": {
          "OBJECT_NAME": "GALAXY 36 (G-36)",
          "OBJECT_ID": "2022-170B",
          "EPOCH": "2025-11-30T18:33:09.494784",
          "MEAN_MOTION": 1.00271264,
          "ECCENTRICITY": 5.25e-05,
          "INCLINATION": 0.0346,
          "RA_OF_ASC_NODE": 138.0636,
          "ARG_OF_PERICENTER": 100.0511,
          "MEAN_ANOMALY": 21.0878,
          "EPHEMERIS_TYPE": 0,
          "CLASSIFICATION_TYPE": "U",
          "NORAD_CAT_ID": 54742,
          "ELEMENT_SET_NO": 999,
          "REV_AT_EPOCH": 1078,
          "BSTAR": 0,
          "MEAN_MOTION_DOT": -1.63e-06,
          "MEAN_MOTION_DDOT": 0
        }
      },
      "geometry": {
        "type": "Point",
        "coordinates": [
          NaN,
          NaN
        ]
      }
    },
    {
      "type": "Feature",
      "properties": {
        "norad_id": 57493,
        "name": "GALAXY 37 (G-37)",
        "group": "intelsat",
        "lat": NaN,
        "lon": NaN,
        "alt_km": NaN,
        "timestamp": "2025-12-01T03:08:33.657454+00:00",
        "meta": {
          "OBJECT_NAME": "GALAXY 37 (G-37)",
          "OBJECT_ID": "2023-112A",
          "EPOCH": "2025-11-30T16:39:35.372160",
          "MEAN_MOTION": 1.00272002,
          "ECCENTRICITY": 0.0002276,
          "INCLINATION": 0.0221,
          "RA_OF_ASC_NODE": 44.6985,
          "ARG_OF_PERICENTER": 210.4627,
          "MEAN_ANOMALY": 297.565,
          "EPHEMERIS_TYPE": 0,
          "CLASSIFICATION_TYPE": "U",
          "NORAD_CAT_ID": 57493,
          "ELEMENT_SET_NO": 999,
          "REV_AT_EPOCH": 855,
          "BSTAR": 0,
          "MEAN_MOTION_DOT": 7e-07,
          "MEAN_MOTION_DDOT": 0
        }
      },
      "geometry": {
        "type": "Point",
        "coordinates": [
          NaN,
          NaN
        ]
      }
    }
  ]
}